HAWK-5A                 
1 52757U 22057AB  26189.90403340  .00012876  00000+0  21435-3 0  9992
2 52757  97.6624 350.1701 0003956   2.8161 357.3112 15.52169718229718
HAWK-6B                 
1 55324U 23011A   26190.28085830  .00002988  00000+0  13208-3 0  9991
2 55324  40.4968 223.1892 0003298 208.8681 151.1946 15.23120634191212
HAWK-6C                 
1 55326U 23011C   26190.28023552  .00003206  00000+0  14112-3 0  9995
2 55326  40.4959 220.0280 0003718 198.2438 161.8238 15.23121852191226
HAWK-6A                 
1 55327U 23011D   26190.28026874  .00002970  00000+0  13134-3 0  9996
2 55327  40.4967 221.6547 0003277 195.1028 164.9684 15.23121822191226
HAWK-7A                 
1 56191U 23054P   26190.25270813  .00003966  00000+0  14968-3 0  9996
2 56191  97.2676  77.0292 0002088   0.4991 359.6251 15.27592409180395
HAWK-7B                 
1 56193U 23054R   26190.25263204  .00003293  00000+0  12474-3 0  9997
2 56193  97.2702  75.3008 0001982  26.9110 333.2232 15.27592465180390
HAWK-7C                 
1 56200U 23054Y   26190.12151082  .00003914  00000+0  14775-3 0  9998
2 56200  97.2679  75.9348 0001604  14.2707 345.8578 15.27592827180370
