OBJECT_NAME,OBJECT_ID,EPOCH,MEAN_MOTION,ECCENTRICITY,INCLINATION,RA_OF_ASC_NODE,ARG_OF_PERICENTER,MEAN_ANOMALY,EPHEMERIS_TYPE,CLASSIFICATION_TYPE,NORAD_CAT_ID,ELEMENT_SET_NO,REV_AT_EPOCH,BSTAR,MEAN_MOTION_DOT,MEAN_MOTION_DDOT
HAWK-5A,2022-057AB,2026-07-08T21:41:48.485760,15.52169718,.00039568,97.6624,350.1701,2.8161,357.3112,0,U,52757,999,22971,.21434928E-3,.12876E-3,0
HAWK-6B,2023-011A,2026-07-09T06:44:26.157120,15.23120634,.00032981,40.4968,223.1892,208.8681,151.1946,0,U,55324,999,19121,.13208201E-3,.2988E-4,0
HAWK-6C,2023-011C,2026-07-09T06:43:32.348928,15.23121852,.00037187,40.4959,220.0280,198.2438,161.8238,0,U,55326,999,19122,.14112236E-3,.3206E-4,0
HAWK-6A,2023-011D,2026-07-09T06:43:35.219136,15.23121822,.0003277,40.4967,221.6547,195.1028,164.9684,0,U,55327,999,19122,.13133619E-3,.297E-4,0
HAWK-7A,2023-054P,2026-07-09T06:03:53.982432,15.27592409,.00020889,97.2676,77.0292,0.4991,359.6251,0,U,56191,999,18039,.14968093E-3,.3966E-4,0
HAWK-7B,2023-054R,2026-07-09T06:03:47.408256,15.27592465,.00019829,97.2702,75.3008,26.9110,333.2232,0,U,56193,999,18039,.12473815E-3,.3293E-4,0
HAWK-7C,2023-054Y,2026-07-09T02:54:58.534848,15.27592827,.0001604,97.2679,75.9348,14.2707,345.8578,0,U,56200,999,18037,.14775325E-3,.3914E-4,0
